start=new Date('2022-02-20T00:00:00.000Z').valueOf();
sats=[{"PERIOD":"95.592","GP_ID":"196428589","NORAD_CAT_ID":"47778","MEAN_ELEMENT_THEORY":"SGP4","TLE_LINE2":"2 47778  53.0510  10.2461 0001725  66.2722 293.8447 15.06398164 54855","RCS_SIZE":"LARGE","FILE":"3308986","OBJECT_TYPE":"PAYLOAD","MEAN_MOTION_DDOT":"0.0000000000000","CLASSIFICATION_TYPE":"U","REF_FRAME":"TEME","SITE":"AFETR","SEMIMAJOR_AXIS":"6925.354","REV_AT_EPOCH":"5485","ECCENTRICITY":"0.00017250","DECAY_DATE":null,"MEAN_MOTION_DOT":"0.00000411","EPOCH":"2022-02-19T21:12:16.204896","ELEMENT_SET_NO":"999","ARG_OF_PERICENTER":"66.2722","APOAPSIS":"548.414","CENTER_NAME":"EARTH","OBJECT_NAME":"STARLINK-2211","OBJECT_ID":"2021-017BJ","MEAN_ANOMALY":"293.8447","PERIAPSIS":"546.025","INCLINATION":"53.0510","BSTAR":"0.00004652800000","TLE_LINE1":"1 47778U 21017BJ  22050.88352089  .00000411  00000-0  46528-4 0  9991","MEAN_MOTION":"15.06398164","EPHEMERIS_TYPE":"0","TIME_SYSTEM":"UTC","LAUNCH_DATE":"2021-03-04","RA_OF_ASC_NODE":"10.2461","COUNTRY_CODE":"US"},{"REF_FRAME":"TEME","CLASSIFICATION_TYPE":"U","SITE":"AFETR","OBJECT_TYPE":"PAYLOAD","MEAN_MOTION_DDOT":"0.0000000000000","ECCENTRICITY":"0.00014660","DECAY_DATE":null,"SEMIMAJOR_AXIS":"6899.515","REV_AT_EPOCH":"5488","NORAD_CAT_ID":"47779","MEAN_ELEMENT_THEORY":"SGP4","PERIOD":"95.058","GP_ID":"196428843","RCS_SIZE":"LARGE","FILE":"3308986","TLE_LINE2":"2 47779  53.0554   7.0245 0001466  81.2678 278.8480 15.14868472 54883","PERIAPSIS":"520.368","INCLINATION":"53.0554","BSTAR":"0.00103310000000","TLE_LINE1":"1 47779U 21017BK  22050.60631445  .00019192  00000-0  10331-2 0  9995","MEAN_MOTION":"15.14868472","OBJECT_NAME":"STARLINK-2212","OBJECT_ID":"2021-017BK","MEAN_ANOMALY":"278.8480","RA_OF_ASC_NODE":"7.0245","COUNTRY_CODE":"US","EPHEMERIS_TYPE":"0","LAUNCH_DATE":"2021-03-04","TIME_SYSTEM":"UTC","ARG_OF_PERICENTER":"81.2678","ELEMENT_SET_NO":"999","MEAN_MOTION_DOT":"0.00019192","EPOCH":"2022-02-19T14:33:05.568480","APOAPSIS":"522.391","CENTER_NAME":"EARTH"},{"APOAPSIS":"549.052","CENTER_NAME":"EARTH","MEAN_MOTION_DOT":"0.00003757","EPOCH":"2022-02-19T21:49:24.828096","ARG_OF_PERICENTER":"52.0036","ELEMENT_SET_NO":"999","EPHEMERIS_TYPE":"0","TIME_SYSTEM":"UTC","LAUNCH_DATE":"2021-03-04","RA_OF_ASC_NODE":"10.1914","COUNTRY_CODE":"US","OBJECT_NAME":"STARLINK-2213","OBJECT_ID":"2021-017BL","MEAN_ANOMALY":"308.1195","PERIAPSIS":"545.338","INCLINATION":"53.0485","BSTAR":"0.00027096000000","TLE_LINE1":"1 47780U 21017BL  22050.90931514  .00003757  00000-0  27096-3 0  9997","MEAN_MOTION":"15.06406015","TLE_LINE2":"2 47780  53.0485  10.1914 0002681  52.0036 308.1195 15.06406015 54893","RCS_SIZE":"LARGE","FILE":"3308986","PERIOD":"95.592","GP_ID":"196427594","MEAN_ELEMENT_THEORY":"SGP4","NORAD_CAT_ID":"47780","SEMIMAJOR_AXIS":"6925.330","REV_AT_EPOCH":"5489","ECCENTRICITY":"0.00026810","DECAY_DATE":null,"OBJECT_TYPE":"PAYLOAD","MEAN_MOTION_DDOT":"0.0000000000000","CLASSIFICATION_TYPE":"U","REF_FRAME":"TEME","SITE":"AFETR"},{"NORAD_CAT_ID":"47781","MEAN_ELEMENT_THEORY":"SGP4","GP_ID":"196400177","PERIOD":"95.591","FILE":"3308716","RCS_SIZE":"LARGE","TLE_LINE2":"2 47781  53.0553  10.2843 0001987  62.7479 297.3713 15.06410388 54207","SITE":"AFETR","REF_FRAME":"TEME","CLASSIFICATION_TYPE":"U","MEAN_MOTION_DDOT":"0.0000000000000","OBJECT_TYPE":"PAYLOAD","DECAY_DATE":null,"ECCENTRICITY":"0.00019870","REV_AT_EPOCH":"5420","SEMIMAJOR_AXIS":"6925.317","ELEMENT_SET_NO":"999","ARG_OF_PERICENTER":"62.7479","EPOCH":"2022-02-19T21:01:39.031680","MEAN_MOTION_DOT":"0.00001137","CENTER_NAME":"EARTH","APOAPSIS":"548.558","TLE_LINE1":"1 47781U 21017BM  22050.87614620  .00001137  00000-0  95208-4 0  9991","MEAN_MOTION":"15.06410388","BSTAR":"0.00009520800000","INCLINATION":"53.0553","PERIAPSIS":"545.806","MEAN_ANOMALY":"297.3713","OBJECT_ID":"2021-017BM","OBJECT_NAME":"STARLINK-2223","COUNTRY_CODE":"US","RA_OF_ASC_NODE":"10.2843","TIME_SYSTEM":"UTC","LAUNCH_DATE":"2021-03-04","EPHEMERIS_TYPE":"0"},{"MEAN_MOTION_DOT":"-0.00000378","EPOCH":"2022-02-19T16:41:34.675008","ARG_OF_PERICENTER":"50.7336","ELEMENT_SET_NO":"999","APOAPSIS":"548.521","CENTER_NAME":"EARTH","OBJECT_NAME":"STARLINK-2257","OBJECT_ID":"2021-018A","MEAN_ANOMALY":"309.3819","PERIAPSIS":"545.921","BSTAR":"-0.00000645130000","INCLINATION":"53.0535","MEAN_MOTION":"15.06397447","TLE_LINE1":"1 47787U 21018A   22050.69554022 -.00000378  00000-0 -64513-5 0  9991","EPHEMERIS_TYPE":"0","LAUNCH_DATE":"2021-03-11","TIME_SYSTEM":"UTC","RA_OF_ASC_NODE":"51.0842","COUNTRY_CODE":"US","PERIOD":"95.592","GP_ID":"196428089","NORAD_CAT_ID":"47787","MEAN_ELEMENT_THEORY":"SGP4","TLE_LINE2":"2 47787  53.0535  51.0842 0001877  50.7336 309.3819 15.06397447 53673","RCS_SIZE":"LARGE","FILE":"3308986","OBJECT_TYPE":"PAYLOAD","MEAN_MOTION_DDOT":"0.0000000000000","REF_FRAME":"TEME","CLASSIFICATION_TYPE":"U","SITE":"AFETR","SEMIMAJOR_AXIS":"6925.356","REV_AT_EPOCH":"5367","ECCENTRICITY":"0.00018770","DECAY_DATE":null},{"CENTER_NAME":"EARTH","APOAPSIS":"548.576","MEAN_MOTION_DOT":"-0.00000657","EPOCH":"2022-02-19T15:22:37.773408","ELEMENT_SET_NO":"999","ARG_OF_PERICENTER":"57.9090","LAUNCH_DATE":"2021-03-11","TIME_SYSTEM":"UTC","EPHEMERIS_TYPE":"0","RA_OF_ASC_NODE":"26.3077","COUNTRY_CODE":"US","OBJECT_NAME":"STARLINK-2314","OBJECT_ID":"2021-018B","MEAN_ANOMALY":"302.2089","MEAN_MOTION":"15.06399515","TLE_LINE1":"1 47788U 21018B   22050.64071497 -.00000657  00000-0 -25182-4 0  9995","PERIAPSIS":"545.854","BSTAR":"-0.00002518200000","INCLINATION":"53.0621","TLE_LINE2":"2 47788  53.0621  26.3077 0001965  57.9090 302.2089 15.06399515 54039","FILE":"3308986","RCS_SIZE":"LARGE","GP_ID":"196428343","PERIOD":"95.592","NORAD_CAT_ID":"47788","MEAN_ELEMENT_THEORY":"SGP4","REV_AT_EPOCH":"5403","SEMIMAJOR_AXIS":"6925.350","ECCENTRICITY":"0.00019650","DECAY_DATE":null,"MEAN_MOTION_DDOT":"0.0000000000000","OBJECT_TYPE":"PAYLOAD","SITE":"AFETR","REF_FRAME":"TEME","CLASSIFICATION_TYPE":"U"},{"ECCENTRICITY":"0.00017210","DECAY_DATE":null,"SEMIMAJOR_AXIS":"6925.339","REV_AT_EPOCH":"5399","REF_FRAME":"TEME","CLASSIFICATION_TYPE":"U","SITE":"AFETR","OBJECT_TYPE":"PAYLOAD","MEAN_MOTION_DDOT":"0.0000000000000","RCS_SIZE":"LARGE","FILE":"3308986","TLE_LINE2":"2 47789  53.0560  30.2206 0001721  56.3447 303.7706 15.06403225 53999","MEAN_ELEMENT_THEORY":"SGP4","NORAD_CAT_ID":"47789","PERIOD":"95.592","GP_ID":"196427094","RA_OF_ASC_NODE":"30.2206","COUNTRY_CODE":"US","EPHEMERIS_TYPE":"0","LAUNCH_DATE":"2021-03-11","TIME_SYSTEM":"UTC","PERIAPSIS":"546.012","INCLINATION":"53.0560","BSTAR":"0.00009610900000","MEAN_MOTION":"15.06403225","TLE_LINE1":"1 47789U 21018C   22050.88904276  .00001150  00000-0  96109-4 0  9996","OBJECT_NAME":"STARLINK-2315","MEAN_ANOMALY":"303.7706","OBJECT_ID":"2021-018C","APOAPSIS":"548.396","CENTER_NAME":"EARTH","ELEMENT_SET_NO":"999","ARG_OF_PERICENTER":"56.3447","MEAN_MOTION_DOT":"0.00001150","EPOCH":"2022-02-19T21:20:13.294464"},{"COUNTRY_CODE":"US","RA_OF_ASC_NODE":"22.7132","EPHEMERIS_TYPE":"0","LAUNCH_DATE":"2021-03-11","TIME_SYSTEM":"UTC","BSTAR":"0.00008897600000","INCLINATION":"53.0559","PERIAPSIS":"546.023","MEAN_MOTION":"15.06407912","TLE_LINE1":"1 47790U 21018D   22050.33338759  .00001044  00000-0  88976-4 0  9990","OBJECT_ID":"2021-018D","MEAN_ANOMALY":"291.8017","OBJECT_NAME":"STARLINK-2319","APOAPSIS":"548.356","CENTER_NAME":"EARTH","ARG_OF_PERICENTER":"68.3151","ELEMENT_SET_NO":"999","EPOCH":"2022-02-19T08:00:04.687776","MEAN_MOTION_DOT":"0.00001044","DECAY_DATE":null,"ECCENTRICITY":"0.00016840","SEMIMAJOR_AXIS":"6925.324","REV_AT_EPOCH":"5405","CLASSIFICATION_TYPE":"U","REF_FRAME":"TEME","SITE":"AFETR","OBJECT_TYPE":"PAYLOAD","MEAN_MOTION_DDOT":"0.0000000000000","RCS_SIZE":"LARGE","FILE":"3308480","TLE_LINE2":"2 47790  53.0559  22.7132 0001684  68.3151 291.8017 15.06407912 54053","NORAD_CAT_ID":"47790","MEAN_ELEMENT_THEORY":"SGP4","PERIOD":"95.592","GP_ID":"196391033"},{"DECAY_DATE":null,"ECCENTRICITY":"0.00016680","REV_AT_EPOCH":"5365","SEMIMAJOR_AXIS":"6925.336","SITE":"AFETR","CLASSIFICATION_TYPE":"U","REF_FRAME":"TEME","MEAN_MOTION_DDOT":"0.0000000000000","OBJECT_TYPE":"PAYLOAD","FILE":"3308480","RCS_SIZE":"LARGE","TLE_LINE2":"2 47791  53.0558  52.0334 0001668  62.9475 297.1684 15.06404248 53657","NORAD_CAT_ID":"47791","MEAN_ELEMENT_THEORY":"SGP4","GP_ID":"196391785","PERIOD":"95.592","COUNTRY_CODE":"US","RA_OF_ASC_NODE":"52.0334","LAUNCH_DATE":"2021-03-11","TIME_SYSTEM":"UTC","EPHEMERIS_TYPE":"0","MEAN_MOTION":"15.06404248","TLE_LINE1":"1 47791U 21018E   22050.48543811 -.00000347  00000-0 -44111-5 0  9995","INCLINATION":"53.0558","BSTAR":"-0.00000441110000","PERIAPSIS":"546.045","MEAN_ANOMALY":"297.1684","OBJECT_ID":"2021-018E","OBJECT_NAME":"STARLINK-2322","CENTER_NAME":"EARTH","APOAPSIS":"548.356","ARG_OF_PERICENTER":"62.9475","ELEMENT_SET_NO":"999","EPOCH":"2022-02-19T11:39:01.852704","MEAN_MOTION_DOT":"-0.00000347"},{"ARG_OF_PERICENTER":"54.2191","ELEMENT_SET_NO":"999","MEAN_MOTION_DOT":"0.00000048","EPOCH":"2022-02-19T15:08:40.485696","APOAPSIS":"548.614","CENTER_NAME":"EARTH","PERIAPSIS":"545.772","INCLINATION":"53.0548","BSTAR":"0.00002214100000","TLE_LINE1":"1 47792U 21018F   22050.63102414  .00000048  00000-0  22141-4 0  9997","MEAN_MOTION":"15.06406609","OBJECT_NAME":"STARLINK-2334","OBJECT_ID":"2021-018F","MEAN_ANOMALY":"305.8988","RA_OF_ASC_NODE":"31.3733","COUNTRY_CODE":"US","EPHEMERIS_TYPE":"0","TIME_SYSTEM":"UTC","LAUNCH_DATE":"2021-03-11","NORAD_CAT_ID":"47792","MEAN_ELEMENT_THEORY":"SGP4","PERIOD":"95.592","GP_ID":"196428844","RCS_SIZE":"LARGE","FILE":"3308986","TLE_LINE2":"2 47792  53.0548  31.3733 0002052  54.2191 305.8988 15.06406609 53957","REF_FRAME":"TEME","CLASSIFICATION_TYPE":"U","SITE":"AFETR","OBJECT_TYPE":"PAYLOAD","MEAN_MOTION_DDOT":"0.0000000000000","ECCENTRICITY":"0.00020520","DECAY_DATE":null,"SEMIMAJOR_AXIS":"6925.328","REV_AT_EPOCH":"5395"}];
